{
  "type": "FeatureCollection",
  "features": [
    {
      "type": "Feature",
      "properties": {
        "norad_id": 66577,
        "name": "STARLINK-35815",
        "group": "last-30-days",
        "lat": 42.974615001728694,
        "lon": -148.06234268072217,
        "alt_km": 409.40800956380554,
        "timestamp": "2025-12-12T09:49:07.481459+00:00",
        "meta_object_name": "STARLINK-35815",
        "meta_object_id": "2025-268W",
        "meta_epoch": "2025-12-12T04:00:01.998720",
        "meta_mean_motion": 15.50545699,
        "meta_eccentricity": 0.0001649,
        "meta_inclination": 43.0003,
        "meta_ra_of_asc_node": 124.4533,
        "meta_arg_of_pericenter": 271.3645,
        "meta_mean_anomaly": 263.0035,
        "meta_ephemeris_type": 0,
        "meta_classification_type": "U",
        "meta_norad_cat_id": 66577,
        "meta_element_set_no": 999,
        "meta_rev_at_epoch": 457,
        "meta_bstar": 0.00015113,
        "meta_mean_motion_dot": 8.524e-05,
        "meta_mean_motion_ddot": 0,
        "tle_line1": "1 66577U 25268W   25346.16668980  .00008524  00000+0  15113-3 0  9990",
        "tle_line2": "2 66577  43.0003 124.4533 0001649 271.3645 263.0035 15.50545699  4577"
      },
      "geometry": {
        "type": "Point",
        "coordinates": [
          -148.06234268072217,
          42.974615001728694
        ]
      }
    },
    {
      "type": "Feature",
      "properties": {
        "norad_id": 66578,
        "name": "STARLINK-35743",
        "group": "last-30-days",
        "lat": 42.97002618594328,
        "lon": -145.46681120666565,
        "alt_km": 409.253835386,
        "timestamp": "2025-12-12T09:49:07.481469+00:00",
        "meta_object_name": "STARLINK-35743",
        "meta_object_id": "2025-268X",
        "meta_epoch": "2025-12-12T04:00:01.998720",
        "meta_mean_motion": 15.50497628,
        "meta_eccentricity": 0.000142,
        "meta_inclination": 43.0003,
        "meta_ra_of_asc_node": 124.4486,
        "meta_arg_of_pericenter": 264.549,
        "meta_mean_anomaly": 271.7444,
        "meta_ephemeris_type": 0,
        "meta_classification_type": "U",
        "meta_norad_cat_id": 66578,
        "meta_element_set_no": 999,
        "meta_rev_at_epoch": 457,
        "meta_bstar": 0.0016957,
        "meta_mean_motion_dot": 0.00100128,
        "meta_mean_motion_ddot": 0,
        "tle_line1": "1 66578U 25268X   25346.16668980  .00100128  00000+0  16957-2 0  9990",
        "tle_line2": "2 66578  43.0003 124.4486 0001420 264.5490 271.7444 15.50497628  4572"
      },
      "geometry": {
        "type": "Point",
        "coordinates": [
          -145.46681120666565,
          42.97002618594328
        ]
      }
    },
    {
      "type": "Feature",
      "properties": {
        "norad_id": 66579,
        "name": "STARLINK-35868",
        "group": "last-30-days",
        "lat": 42.905192432197836,
        "lon": -142.8342797468595,
        "alt_km": 409.3434021644034,
        "timestamp": "2025-12-12T09:49:07.481481+00:00",
        "meta_object_name": "STARLINK-35868",
        "meta_object_id": "2025-268Y",
        "meta_epoch": "2025-12-12T04:00:01.998720",
        "meta_mean_motion": 15.50544693,
        "meta_eccentricity": 0.0001537,
        "meta_inclination": 43.0003,
        "meta_ra_of_asc_node": 124.4438,
        "meta_arg_of_pericenter": 266.6533,
        "meta_mean_anomaly": 271.5471,
        "meta_ephemeris_type": 0,
        "meta_classification_type": "U",
        "meta_norad_cat_id": 66579,
        "meta_element_set_no": 999,
        "meta_rev_at_epoch": 457,
        "meta_bstar": 0.00016101,
        "meta_mean_motion_dot": 9.104e-05,
        "meta_mean_motion_ddot": 0,
        "tle_line1": "1 66579U 25268Y   25346.16668980  .00009104  00000+0  16101-3 0  9995",
        "tle_line2": "2 66579  43.0003 124.4438 0001537 266.6533 271.5471 15.50544693  4573"
      },
      "geometry": {
        "type": "Point",
        "coordinates": [
          -142.8342797468595,
          42.905192432197836
        ]
      }
    },
    {
      "type": "Feature",
      "properties": {
        "norad_id": 66580,
        "name": "STARLINK-35872",
        "group": "last-30-days",
        "lat": 42.7819724035494,
        "lon": -140.2429775674986,
        "alt_km": 409.3007704520887,
        "timestamp": "2025-12-12T09:49:07.481492+00:00",
        "meta_object_name": "STARLINK-35872",
        "meta_object_id": "2025-268Z",
        "meta_epoch": "2025-12-12T04:00:01.998720",
        "meta_mean_motion": 15.50494971,
        "meta_eccentricity": 0.0001446,
        "meta_inclination": 43.0003,
        "meta_ra_of_asc_node": 124.4394,
        "meta_arg_of_pericenter": 266.0536,
        "meta_mean_anomaly": 274.076,
        "meta_ephemeris_type": 0,
        "meta_classification_type": "U",
        "meta_norad_cat_id": 66580,
        "meta_element_set_no": 999,
        "meta_rev_at_epoch": 457,
        "meta_bstar": 0.001727,
        "meta_mean_motion_dot": 0.00101996,
        "meta_mean_motion_ddot": 0,
        "tle_line1": "1 66580U 25268Z   25346.16668980  .00101996  00000+0  17270-2 0  9996",
        "tle_line2": "2 66580  43.0003 124.4394 0001446 266.0536 274.0760 15.50494971  4574"
      },
      "geometry": {
        "type": "Point",
        "coordinates": [
          -140.2429775674986,
          42.7819724035494
        ]
      }
    },
    {
      "type": "Feature",
      "properties": {
        "norad_id": 66581,
        "name": "STARLINK-35744",
        "group": "last-30-days",
        "lat": 42.59828003364339,
        "lon": -137.6387890396417,
        "alt_km": 409.45672179560097,
        "timestamp": "2025-12-12T09:49:07.481502+00:00",
        "meta_object_name": "STARLINK-35744",
        "meta_object_id": "2025-268AA",
        "meta_epoch": "2025-12-12T04:00:01.998720",
        "meta_mean_motion": 15.50550361,
        "meta_eccentricity": 0.0001694,
        "meta_inclination": 43.0004,
        "meta_ra_of_asc_node": 124.4336,
        "meta_arg_of_pericenter": 286.2322,
        "meta_mean_anomaly": 255.7862,
        "meta_ephemeris_type": 0,
        "meta_classification_type": "U",
        "meta_norad_cat_id": 66581,
        "meta_element_set_no": 999,
        "meta_rev_at_epoch": 452,
        "meta_bstar": 0.00022691,
        "meta_mean_motion_dot": 0.00012979,
        "meta_mean_motion_ddot": 0,
        "tle_line1": "1 66581U 25268AA  25346.16668980  .00012979  00000+0  22691-3 0  9993",
        "tle_line2": "2 66581  43.0004 124.4336 0001694 286.2322 255.7862 15.50550361  4524"
      },
      "geometry": {
        "type": "Point",
        "coordinates": [
          -137.6387890396417,
          42.59828003364339
        ]
      }
    },
    {
      "type": "Feature",
      "properties": {
        "norad_id": 66582,
        "name": "STARLINK-35746",
        "group": "last-30-days",
        "lat": 42.35791972446701,
        "lon": -135.074358838773,
        "alt_km": 409.37526735376014,
        "timestamp": "2025-12-12T09:49:07.481515+00:00",
        "meta_object_name": "STARLINK-35746",
        "meta_object_id": "2025-268AB",
        "meta_epoch": "2025-12-12T04:00:01.998720",
        "meta_mean_motion": 15.50511627,
        "meta_eccentricity": 0.000145,
        "meta_inclination": 43.0003,
        "meta_ra_of_asc_node": 124.4284,
        "meta_arg_of_pericenter": 270.5109,
        "meta_mean_anomaly": 273.4436,
        "meta_ephemeris_type": 0,
        "meta_classification_type": "U",
        "meta_norad_cat_id": 66582,
        "meta_element_set_no": 999,
        "meta_rev_at_epoch": 457,
        "meta_bstar": 0.0011187,
        "meta_mean_motion_dot": 0.00065681,
        "meta_mean_motion_ddot": 0,
        "tle_line1": "1 66582U 25268AB  25346.16668980  .00065681  00000+0  11187-2 0  9999",
        "tle_line2": "2 66582  43.0003 124.4284 0001450 270.5109 273.4436 15.50511627  4576"
      },
      "geometry": {
        "type": "Point",
        "coordinates": [
          -135.074358838773,
          42.35791972446701
        ]
      }
    },
    {
      "type": "Feature",
      "properties": {
        "norad_id": 66583,
        "name": "STARLINK-35941",
        "group": "last-30-days",
        "lat": 42.05779317546603,
        "lon": -132.50744177824654,
        "alt_km": 409.40697037180234,
        "timestamp": "2025-12-12T09:49:07.481525+00:00",
        "meta_object_name": "STARLINK-35941",
        "meta_object_id": "2025-268AC",
        "meta_epoch": "2025-12-12T04:00:01.998720",
        "meta_mean_motion": 15.50542445,
        "meta_eccentricity": 0.0001455,
        "meta_inclination": 43.0004,
        "meta_ra_of_asc_node": 124.4238,
        "meta_arg_of_pericenter": 272.4023,
        "meta_mean_anomaly": 273.4608,
        "meta_ephemeris_type": 0,
        "meta_classification_type": "U",
        "meta_norad_cat_id": 66583,
        "meta_element_set_no": 999,
        "meta_rev_at_epoch": 457,
        "meta_bstar": 0.00031092,
        "meta_mean_motion_dot": 0.00017916,
        "meta_mean_motion_ddot": 0,
        "tle_line1": "1 66583U 25268AC  25346.16668980  .00017916  00000+0  31092-3 0  9996",
        "tle_line2": "2 66583  43.0004 124.4238 0001455 272.4023 273.4608 15.50542445  4571"
      },
      "geometry": {
        "type": "Point",
        "coordinates": [
          -132.50744177824654,
          42.05779317546603
        ]
      }
    }
  ]
}